NORAD_CAT_ID,OBJECT_NAME,OBJECT_TYPE,EPOCH,MEAN_MOTION,ECCENTRICITY,INCLINATION,RA_OF_ASC_NODE,ARG_OF_PERICENTER,MEAN_ANOMALY,BSTAR,MEAN_MOTION_DOT,MEAN_MOTION_DDOT,TLE_LINE0,TLE_LINE1,TLE_LINE2,SEMIMAJOR_AXIS,PERIOD,APOGEE,PERIGEE,DECAYED
53900.0,STARLINK-5045,PAYLOAD,2023-05-19 07:40:23,15.08838392,0.0001389,53.2169,246.8234,110.1418,249.9723,3.2333e-05,2.27e-06,0.0,0 STARLINK-5045,1 53900U 22119Q   23139.31971618  .00000227  00000-0  32333-4 0  9995,2 53900  53.2169 246.8234 0001389 110.1418 249.9723 15.08838392 36474,6917.885,95.438,540.711,538.789,0.0
53900.0,STARLINK-5045,PAYLOAD,2023-05-19 12:26:32,15.08842201,0.0001322,53.2157,245.9323,116.5096,243.6032,7.7566e-05,9.47e-06,0.0,0 STARLINK-5045,1 53900U 22119Q   23139.51843216  .00000947  00000-0  77566-4 0  9995,2 53900  53.2157 245.9323 0001322 116.5096 243.6032 15.08842201 36927,6917.874,95.437,540.653,538.824,0.0
53900.0,STARLINK-5045,PAYLOAD,2023-05-20 10:41:56,15.08847998,0.0001073,53.216,241.7724,89.3403,270.7712,7.4392e-05,8.97e-06,0.0,0 STARLINK-5045,1 53900U 22119Q   23140.44579032  .00000897  00000-0  74392-4 0  9999,2 53900  53.2160 241.7724 0001073  89.3403 270.7712 15.08847998 36645,6917.856,95.437,540.463,538.979,0.0
53900.0,STARLINK-5045,PAYLOAD,2023-05-20 12:17:19,15.08850813,0.0001089,53.2157,241.4755,93.9537,266.158,0.00010182,1.333e-05,0.0,0 STARLINK-5045,1 53900U 22119Q   23140.51202789  .00001333  00000-0  10182-3 0  9991,2 53900  53.2157 241.4755 0001089  93.9537 266.1580 15.08850813 37078,6917.847,95.437,540.466,538.959,0.0
53900.0,STARLINK-5045,PAYLOAD,2023-05-21 08:57:20,15.08836027,0.0001177,53.215,237.6104,101.8229,258.2895,-2.1145e-05,-6.24e-06,0.0,0 STARLINK-5045,1 53900U 22119Q   23141.37315823 -.00000624  00000-0 -21145-4 0  9996,2 53900  53.2150 237.6104 0001177 101.8229 258.2895 15.08836027 36780,6917.893,95.438,540.572,538.943,0.0
53900.0,STARLINK-5045,PAYLOAD,2023-05-21 12:08:07,15.08838105,0.000142,53.2153,237.0162,105.6597,254.4552,6.6761e-06,-1.82e-06,0.0,0 STARLINK-5045,1 53900U 22119Q   23141.50563692 -.00000182  00000-0  66761-5 0  9992,2 53900  53.2153 237.0162 0001420 105.6597 254.4552 15.08838105 37229,6917.886,95.438,540.734,538.769,0.0
53900.0,STARLINK-5045,PAYLOAD,2023-05-21 15:18:52,15.08842783,0.0001183,53.2159,236.4198,97.8557,262.257,4.2025e-05,3.81e-06,0.0,0 STARLINK-5045,1 53900U 22119Q   23141.63811199  .00000381  00000-0  42025-4 0  9990,2 53900  53.2159 236.4198 0001183  97.8557 262.2570 15.08842783 36820,6917.872,95.437,540.555,538.918,0.0
53900.0,STARLINK-5045,PAYLOAD,2023-05-21 23:15:49,15.08837222,0.0001214,53.2164,234.9327,86.4269,273.6862,1.482e-05,-5.2e-07,0.0,0 STARLINK-5045,1 53900U 22119Q   23141.96931716 -.00000052  00000-0  14820-4 0  9992,2 53900  53.2164 234.9327 0001214  86.4269 273.6862 15.08837222 36879,6917.889,95.438,540.594,538.914,0.0
53900.0,STARLINK-5045,PAYLOAD,2023-05-22 10:23:31,15.08836435,0.000117,53.2159,232.8514,92.9603,267.1523,-6.0227e-05,-1.246e-05,0.0,0 STARLINK-5045,1 53900U 22119Q   23142.43300157 -.00001246  00000-0 -60227-4 0  9993,2 53900  53.2159 232.8514 0001170  92.9603 267.1523 15.08836435 37365,6917.891,95.438,540.566,538.947,0.0
53900.0,STARLINK-5045,PAYLOAD,2023-05-22 13:34:17,15.08836492,0.0001233,53.2161,232.2552,93.9792,266.1341,-2.6974e-05,-7.17e-06,0.0,0 STARLINK-5045,1 53900U 22119Q   23142.56547955 -.00000717  00000-0 -26974-4 0  9999,2 53900  53.2161 232.2552 0001233  93.9792 266.1341 15.08836492 37386,6917.891,95.438,540.609,538.903,0.0
53900.0,STARLINK-5045,PAYLOAD,2023-05-23 11:49:41,15.08834864,0.0001193,53.2159,228.0925,86.5947,273.5182,3.1968e-05,2.21e-06,0.0,0 STARLINK-5045,1 53900U 22119Q   23143.49284267  .00000221  00000-0  31968-4 0  9993,2 53900  53.2159 228.0925 0001193  86.5947 273.5182 15.08834864 37101,6917.896,95.438,540.586,538.936,0.0
53900.0,STARLINK-5045,PAYLOAD,2023-05-23 13:25:04,15.08836528,0.0001215,53.216,227.7949,86.7342,273.3789,4.9586e-05,5.01e-06,0.0,0 STARLINK-5045,1 53900U 22119Q   23143.55908133  .00000501  00000-0  49586-4 0  9991,2 53900  53.2160 227.7949 0001215  86.7342 273.3789 15.08836528 37538,6917.891,95.438,540.597,538.915,0.0
53900.0,STARLINK-5045,PAYLOAD,2023-05-24 14:51:14,15.08843154,0.0001194,53.2155,223.0394,79.4861,280.6265,0.00011586,1.557e-05,0.0,0 STARLINK-5045,1 53900U 22119Q   23144.61891666  .00001557  00000-0  11586-3 0  9991,2 53900  53.2155 223.0394 0001194  79.4861 280.6265 15.08843154 37270,6917.871,95.437,540.562,538.91,0.0
53900.0,STARLINK-5045,PAYLOAD,2023-05-25 14:42:01,15.08842067,0.000126,53.2163,218.5762,90.9065,269.2071,6.5497e-05,7.55e-06,0.0,0 STARLINK-5045,1 53900U 22119Q   23145.61251869  .00000755  00000-0  65497-4 0  9997,2 53900  53.2163 218.5762 0001260  90.9065 269.2071 15.08842067 37422,6917.874,95.437,540.611,538.867,0.0
53900.0,STARLINK-5045,PAYLOAD,2023-05-26 11:22:02,15.08840699,0.0001282,53.2161,214.7084,106.4802,253.6331,-1.3382e-06,-3.09e-06,0.0,0 STARLINK-5045,1 53900U 22119Q   23146.47363935 -.00000309  00000-0 -13382-5 0  9994,2 53900  53.2161 214.7084 0001282 106.4802 253.6331 15.08840699 37976,6917.878,95.438,540.63,538.856,0.0
53900.0,STARLINK-5045,PAYLOAD,2023-05-27 09:37:26,15.08837101,0.0001255,53.2161,210.5459,109.4627,250.6501,7.0465e-07,-2.77e-06,0.0,0 STARLINK-5045,1 53900U 22119Q   23147.40100161 -.00000277  00000-0  70465-6 0  9997,2 53900  53.2161 210.5459 0001255 109.4627 250.6501 15.08837101 37693,6917.889,95.438,540.622,538.886,0.0
53900.0,STARLINK-5045,PAYLOAD,2023-05-27 20:45:08,15.08837442,0.0001098,53.2158,208.465,87.3962,272.7156,1.2028e-05,-9.6e-07,0.0,0 STARLINK-5045,1 53900U 22119Q   23147.86468231 -.00000096  00000-0  12028-4 0  9990,2 53900  53.2158 208.4650 0001098  87.3962 272.7156 15.08837442 38183,6917.888,95.438,540.513,538.994,0.0
53900.0,STARLINK-5045,PAYLOAD,2023-05-28 03:06:41,15.08834592,0.0001111,53.216,207.2783,96.9177,263.1941,2.5499e-05,1.18e-06,0.0,0 STARLINK-5045,1 53900U 22119Q   23148.12964434  .00000118  00000-0  25499-4 0  9996,2 53900  53.2160 207.2783 0001111  96.9177 263.1941 15.08834592 38224,6917.897,95.438,540.53,538.993,0.0
53900.0,STARLINK-5045,PAYLOAD,2023-05-28 20:35:55,15.08837108,0.000107,53.2163,204.0076,97.0401,263.0713,4.4915e-05,4.27e-06,0.0,0 STARLINK-5045,1 53900U 22119Q   23148.85828408  .00000427  00000-0  44915-4 0  9993,2 53900  53.2163 204.0076 0001070  97.0401 263.0713 15.08837108 38337,6917.889,95.438,540.494,539.014,0.0
53900.0,STARLINK-5045,PAYLOAD,2023-05-28 23:46:41,15.08839116,9.7e-05,53.2156,203.4129,96.584,263.5263,5.8528e-05,6.44e-06,0.0,0 STARLINK-5045,1 53900U 22119Q   23148.99076249  .00000644  00000-0  58528-4 0  9992,2 53900  53.2156 203.4129 0000970  96.5840 263.5263 15.08839116 37931,6917.883,95.438,540.419,539.077,0.0
53900.0,STARLINK-5045,PAYLOAD,2023-05-29 12:29:46,15.0884301,9.84e-05,53.2153,201.0336,87.3011,272.8094,8.371e-05,1.045e-05,0.0,0 STARLINK-5045,1 53900U 22119Q   23149.52067928  .00001045  00000-0  83710-4 0  9993,2 53900  53.2153 201.0336 0000984  87.3011 272.8094 15.08843010 38434,6917.871,95.437,540.417,539.055,0.0
53900.0,STARLINK-5045,PAYLOAD,2023-05-29 20:26:42,15.0883773,9.68e-05,53.2155,199.5472,92.2054,267.9049,3.855e-05,3.26e-06,0.0,0 STARLINK-5045,1 53900U 22119Q   23149.85188404  .00000326  00000-0  38550-4 0  9995,2 53900  53.2155 199.5472 0000968  92.2054 267.9049 15.08837730 38484,6917.887,95.438,540.422,539.083,0.0
53900.0,STARLINK-5045,PAYLOAD,2023-05-30 09:09:48,15.08833985,9.95e-05,53.2153,197.1673,91.0895,269.0211,2.6436e-06,-2.46e-06,0.0,0 STARLINK-5045,1 53900U 22119Q   23150.38180899 -.00000246  00000-0  26436-5 0  9998,2 53900  53.2153 197.1673 0000995  91.0895 269.0211 15.08833985 38144,6917.899,95.438,540.452,539.075,0.0
53900.0,STARLINK-5045,PAYLOAD,2023-05-30 12:20:34,15.08836282,0.0001007,53.2152,196.5723,90.38,269.7307,1.8098e-05,0.0,0.0,0 STARLINK-5045,1 53900U 22119Q   23150.51428743  .00000000  00000-0  18098-4 0  9997,2 53900  53.2152 196.5723 0001007  90.3800 269.7307 15.08836282 38589,6917.892,95.438,540.453,539.06,0.0
53900.0,STARLINK-5045,PAYLOAD,2023-05-30 20:17:30,15.0883539,0.0001024,53.215,195.085,88.6976,271.4134,-6.1685e-07,-2.98e-06,0.0,0 STARLINK-5045,1 53900U 22119Q   23150.84548928 -.00000298  00000-0 -61685-6 0  9994,2 53900  53.2150 195.0850 0001024  88.6976 271.4134 15.08835390 38638,6917.894,95.438,540.468,539.051,0.0
53900.0,STARLINK-5045,PAYLOAD,2023-05-31 10:35:58,15.08839687,0.0001016,53.215,192.4085,87.8881,272.2228,4.4497e-06,-2.17e-06,0.0,0 STARLINK-5045,1 53900U 22119Q   23151.44164706 -.00000217  00000-0  44497-5 0  9990,2 53900  53.2150 192.4085 0001016  87.8881 272.2228 15.08839687 38306,6917.881,95.438,540.449,539.043,0.0
53900.0,STARLINK-5045,PAYLOAD,2023-05-31 20:08:17,15.08839368,0.0001045,53.2156,190.6244,86.7699,273.3412,3.3287e-05,2.42e-06,0.0,0 STARLINK-5045,1 53900U 22119Q   23151.83908649  .00000242  00000-0  33287-4 0  9996,2 53900  53.2156 190.6244 0001045  86.7699 273.3412 15.08839368 38781,6917.882,95.438,540.47,539.024,0.0
53900.0,STARLINK-5045,PAYLOAD,2023-06-01 08:51:22,15.08840778,0.000104,53.2154,188.2461,82.3139,277.7971,6.7869e-05,7.93e-06,0.0,0 STARLINK-5045,1 53900U 22119Q   23152.36900515  .00000793  00000-0  67869-4 0  9993,2 53900  53.2154 188.2461 0001040  82.3139 277.7971 15.08840778 38863,6917.878,95.438,540.462,539.024,0.0
53900.0,STARLINK-5045,PAYLOAD,2023-06-01 19:59:04,15.08840412,0.0001039,53.2154,186.1646,81.3592,278.7518,6.526e-05,7.51e-06,0.0,0 STARLINK-5045,1 53900U 22119Q   23152.83268532  .00000751  00000-0  65260-4 0  9998,2 53900  53.2154 186.1646 0001039  81.3592 278.7518 15.08840412 38510,6917.879,95.438,540.463,539.025,0.0
53900.0,STARLINK-5045,PAYLOAD,2023-06-02 08:42:09,15.08838475,0.000107,53.2156,183.7856,83.4875,276.6239,3.0519e-05,1.98e-06,0.0,0 STARLINK-5045,1 53900U 22119Q   23153.36260795  .00000198  00000-0  30519-4 0  9994,2 53900  53.2156 183.7856 0001070  83.4875 276.6239 15.08838475 39019,6917.885,95.438,540.49,539.01,0.0
